TOMORROW-S1             
1 60479U 24149M   26165.78607325  .00007529  00000+0  24097-3 0  9991
2 60479  97.3755 246.2654 0001296 225.7592 134.3544 15.32691298101724
FLOCK 4BE-18            
1 60480U 24149N   26165.48483961  .00016109  00000+0  38240-3 0  9997
2 60480  97.3732 249.1856 0002666 248.2587 111.8376 15.41779579101893
FLOCK 4BE-7             
1 60481U 24149P   26165.48961710  .00019088  00000+0  47652-3 0  9997
2 60481  97.3767 248.5349 0001874 248.3407 111.7639 15.40217012101837
TOMORROW-S2             
1 60485U 24149T   26165.49020566  .00007806  00000+0  24955-3 0  9993
2 60485  97.3825 246.4569 0001259 283.0327  77.0774 15.32715881101675
FLOCK 4BE-36            
1 60486U 24149U   26165.19837068  .00016804  00000+0  38749-3 0  9998
2 60486  97.3751 249.5905 0002233 269.3525  90.7466 15.42644217101891
FLOCK 4BE-25            
1 60487U 24149V   26165.48669769  .00013386  00000+0  35115-3 0  9998
2 60487  97.3806 248.6182 0001076 233.4840 126.6307 15.38776972101821
FLOCK 4BE-31            
1 60488U 24149W   26165.23195088  .00020109  00000+0  44270-3 0  9993
2 60488  97.3804 250.4741 0001223 262.5348  97.5761 15.43991932101924
FLOCK 4BE-20            
1 60489U 24149X   26165.77409431  .00012283  00000+0  33061-3 0  9993
2 60489  97.3703 247.7927 0002374 262.4887  97.6088 15.38001203101844
FLOCK 4BE-23            
1 60490U 24149Y   26165.82881012  .00012274  00000+0  33447-3 0  9998
2 60490  97.3789 248.2231 0001953 272.7442  87.3579 15.37619699101830
FLOCK 4BE-15            
1 60491U 24149Z   26165.77701153  .00084118  00000+0  10593-2 0  9992
2 60491  97.3692 251.0675 0002743 244.9881 115.1091 15.59352879102056
FLOCK 4BE-17            
1 60492U 24149AA  26165.81620919  .00013603  00000+0  34596-3 0  9999
2 60492  97.3780 249.1664 0001891 248.2564 111.8481 15.39723978101896
NUSAT-50 (NANCY ROMAN)  
1 60493U 24149AB  26165.81371500  .00008600  00000+0  30030-3 0  9999
2 60493  97.3795 247.0857 0003239 181.1587 178.9647 15.29820727101765
FLOCK 4BE-22            
1 60494U 24149AC  26165.86481293  .00014824  00000+0  36006-3 0  9990
2 60494  97.3742 249.4035 0002260 267.0527  93.0461 15.41104723101949
FLOCK 4BE-34            
1 60495U 24149AD  26165.49236902  .00014997  00000+0  36442-3 0  9990
2 60495  97.3788 249.8483 0002062 284.0108  76.0909 15.41089514101910
TYCHE                   
1 60496U 24149AE  26165.84052019  .00004225  00000+0  16729-3 0  9994
2 60496  97.3759 243.6877 0000548 275.4855  84.6321 15.25971503101540
FLOCK 4BE-32            
1 60497U 24149AF  26165.78714692  .00015704  00000+0  36906-3 0  9993
2 60497  97.3730 249.6879 0002283 271.4103  88.6882 15.42087884101969
NUSAT-48 (HENRIETTA LE*)
1 60498U 24149AG  26165.47529893  .00000471  00000+0  18893-4 0  9998
2 60498  97.3919 246.9886 0002284 293.9843  66.1158 15.29818423101725
FLOCK 4BE-30            
1 60499U 24149AH  26165.49203800  .00129724  00000+0  18435-2 0  9991
2 60499  97.3782 250.9212 0003917 236.6091 123.4789 15.55937258101358
NUSAT-49 (KLARA DAN VO*)
1 60500U 24149AJ  26165.78054810  .00008343  00000+0  29065-3 0  9996
2 60500  97.3789 247.0846 0001173 354.7018   5.4210 15.29910944101768
FLOCK 4BE-11            
1 60501U 24149AK  26165.78301811  .00015418  00000+0  35258-3 0  9995
2 60501  97.3709 249.9118 0002462 271.2762  88.8204 15.42912372101989
YAM-7                   
1 60504U 24149AN  26165.77093664  .00007057  00000+0  23243-3 0  9992
2 60504  97.3790 246.0300 0002068 322.4368  37.6729 15.31790469101686
FLOCK 4BE-24            
1 60505U 24149AP  26165.76973422  .00017562  00000+0  40016-3 0  9990
2 60505  97.3725 250.1532 0002664 286.4792  73.6162 15.42992259101998
LUR-1                   
1 60506U 24149AQ  26165.75856110  .00006620  00000+0  22999-3 0  9997
2 60506  97.3743 244.6040 0002972 332.2117  27.8965 15.30078656101607
TANAGER-1               
1 60507U 24149AR  26165.24482070  .00004346  00000+0  94298-4 0  9997
2 60507  97.2631 259.5004 0003155 314.5808  45.5183 15.44927530102588
EAGLEEYE                
1 60508U 24149AS  26165.49444028  .00101338  00000+0  82041-3 0  9997
2 60508  97.3734 258.6838 0004043 244.8735 115.2108 15.70473224102510
FLOCK 4BE-29            
1 60509U 24149AT  26165.78223308  .00016241  00000+0  35706-3 0  9990
2 60509  97.3821 251.6184 0001419 310.0702  50.0421 15.44078769102047
TRANSPORTER-11 OBJECT AU
1 60510U 24149AU  26165.78402640  .00013580  00000+0  34043-3 0  9996
2 60510  97.3736 249.4848 0002282 304.0258  56.0771 15.40164676101945
FLOCK 4BE-2             
1 60511U 24149AV  26165.22330138  .00053808  00000+0  87793-3 0  9995
2 60511  97.3845 252.4331 0003126 265.7294  94.3601 15.52420313102044
FLOCK 4BE-13            
1 60512U 24149AW  26165.49507141  .00014080  00000+0  33405-3 0  9995
2 60512  97.3726 249.8781 0002792 274.4895  85.6033 15.41827216101956
