OBJECT_NAME,OBJECT_ID,EPOCH,MEAN_MOTION,ECCENTRICITY,INCLINATION,RA_OF_ASC_NODE,ARG_OF_PERICENTER,MEAN_ANOMALY,EPHEMERIS_TYPE,CLASSIFICATION_TYPE,NORAD_CAT_ID,ELEMENT_SET_NO,REV_AT_EPOCH,BSTAR,MEAN_MOTION_DOT,MEAN_MOTION_DDOT
TOMORROW-S1,2024-149M,2026-06-14T18:51:56.728800,15.32691298,.0001296,97.3755,246.2654,225.7592,134.3544,0,U,60479,999,10172,.24097E-3,.7529E-4,0
FLOCK 4BE-18,2024-149N,2026-06-14T11:38:10.142304,15.41779579,.0002666,97.3732,249.1856,248.2587,111.8376,0,U,60480,999,10189,.38240026E-3,.16109E-3,0
FLOCK 4BE-7,2024-149P,2026-06-14T11:45:02.917440,15.40217012,.00018749,97.3767,248.5349,248.3407,111.7639,0,U,60481,999,10183,.47652205E-3,.19088E-3,0
TOMORROW-S2,2024-149T,2026-06-14T11:45:53.769024,15.32715881,.00012596,97.3825,246.4569,283.0327,77.0774,0,U,60485,999,10167,.24954623E-3,.7806E-4,0
FLOCK 4BE-36,2024-149U,2026-06-14T04:45:39.226752,15.42644217,.00022338,97.3751,249.5905,269.3525,90.7466,0,U,60486,999,10189,.38749449E-3,.16804E-3,0
FLOCK 4BE-25,2024-149V,2026-06-14T11:40:50.680416,15.38776972,.0001076,97.3806,248.6182,233.4840,126.6307,0,U,60487,999,10182,.35114769E-3,.13386E-3,0
FLOCK 4BE-31,2024-149W,2026-06-14T05:34:00.556032,15.43991932,.0001223,97.3804,250.4741,262.5348,97.5761,0,U,60488,999,10192,.4427E-3,.20109E-3,0
FLOCK 4BE-20,2024-149X,2026-06-14T18:34:41.748384,15.38001203,.0002374,97.3703,247.7927,262.4887,97.6088,0,U,60489,999,10184,.33061E-3,.12283E-3,0
FLOCK 4BE-23,2024-149Y,2026-06-14T19:53:29.194368,15.37619699,.0001953,97.3789,248.2231,272.7442,87.3579,0,U,60490,999,10183,.33447E-3,.12274E-3,0
FLOCK 4BE-15,2024-149Z,2026-06-14T18:38:53.796192,15.59352879,.0002743,97.3692,251.0675,244.9881,115.1091,0,U,60491,999,10205,.10593E-2,.84118E-3,0
FLOCK 4BE-17,2024-149AA,2026-06-14T19:35:20.474016,15.39723978,.0001891,97.3780,249.1664,248.2564,111.8481,0,U,60492,999,10189,.34596E-3,.13603E-3,0
NUSAT-50 (NANCY ROMAN),2024-149AB,2026-06-14T19:31:44.976000,15.29820727,.0003239,97.3795,247.0857,181.1587,178.9647,0,U,60493,999,10176,.3003E-3,.86E-4,0
FLOCK 4BE-22,2024-149AC,2026-06-14T20:45:19.837152,15.41104723,.000226,97.3742,249.4035,267.0527,93.0461,0,U,60494,999,10194,.36006E-3,.14824E-3,0
FLOCK 4BE-34,2024-149AD,2026-06-14T11:49:00.683328,15.41089514,.00020625,97.3788,249.8483,284.0108,76.0909,0,U,60495,999,10191,.36441895E-3,.14997E-3,0
TYCHE,2024-149AE,2026-06-14T20:10:20.944416,15.25971503,.0000548,97.3759,243.6877,275.4855,84.6321,0,U,60496,999,10154,.16729E-3,.4225E-4,0
FLOCK 4BE-32,2024-149AF,2026-06-14T18:53:29.493888,15.42087884,.0002283,97.3730,249.6879,271.4103,88.6882,0,U,60497,999,10196,.36906E-3,.15704E-3,0
NUSAT-48 (HENRIETTA LEAVITT),2024-149AG,2026-06-14T11:24:25.827552,15.29818423,.00022844,97.3919,246.9886,293.9843,66.1158,0,U,60498,999,10172,.18892724E-4,.471E-5,0
FLOCK 4BE-30,2024-149AH,2026-06-14T11:48:32.083200,15.55937258,.00039171,97.3782,250.9212,236.6091,123.4789,0,U,60499,999,10135,.18435328E-2,.129724E-2,0
NUSAT-49 (KLARA DAN VON NEUMANN),2024-149AJ,2026-06-14T18:43:59.355840,15.29910944,.0001173,97.3789,247.0846,354.7018,5.4210,0,U,60500,999,10176,.29065E-3,.8343E-4,0
FLOCK 4BE-11,2024-149AK,2026-06-14T18:47:32.764704,15.42912372,.0002462,97.3709,249.9118,271.2762,88.8204,0,U,60501,999,10198,.35258E-3,.15418E-3,0
YAM-7,2024-149AN,2026-06-14T18:30:08.925696,15.31790469,.0002068,97.3790,246.0300,322.4368,37.6729,0,U,60504,999,10168,.23243E-3,.7057E-4,0
FLOCK 4BE-24,2024-149AP,2026-06-14T18:28:25.036608,15.42992259,.0002664,97.3725,250.1532,286.4792,73.6162,0,U,60505,999,10199,.40016E-3,.17562E-3,0
LUR-1,2024-149AQ,2026-06-14T18:12:19.679040,15.30078656,.0002972,97.3743,244.6040,332.2117,27.8965,0,U,60506,999,10160,.22999E-3,.662E-4,0
TANAGER-1,2024-149AR,2026-06-14T05:52:32.508480,15.44927530,.00031559,97.2631,259.5004,314.5808,45.5183,0,U,60507,999,10258,.94297867E-4,.4346E-4,0
EAGLEEYE,2024-149AS,2026-06-14T11:51:59.640192,15.70473224,.00040438,97.3734,258.6838,244.8735,115.2108,0,U,60508,999,10251,.82040643E-3,.101338E-2,0
FLOCK 4BE-29,2024-149AT,2026-06-14T18:46:24.938112,15.44078769,.0001419,97.3821,251.6184,310.0702,50.0421,0,U,60509,999,10204,.35706E-3,.16241E-3,0
TRANSPORTER-11 OBJECT AU,2024-149AU,2026-06-14T18:48:59.880960,15.40164676,.0002282,97.3736,249.4848,304.0258,56.0771,0,U,60510,999,10194,.34043E-3,.1358E-3,0
FLOCK 4BE-2,2024-149AV,2026-06-14T05:21:33.239232,15.52420313,.0003126,97.3845,252.4331,265.7294,94.3601,0,U,60511,999,10204,.87793E-3,.53808E-3,0
FLOCK 4BE-13,2024-149AW,2026-06-14T11:52:54.169824,15.41827216,.00027927,97.3726,249.8781,274.4895,85.6033,0,U,60512,999,10195,.33404813E-3,.1408E-3,0
